     2.11           N: GPS NAV eATA                         RINEX VERSION / TYPE
teqc  2017Jul18     gpsops              20171023 00:07:43UTCPGM / RUN BY / eATE
Linux 2.6.32-573.12.1.x86_64|x86_64|gcc -static|Linux 64|=+ COMMENT
    1.2107e-08  0.0000e+00 -1.1921e-07  0.0000e+00          ION ALPHA
    9.4208e+04  0.0000e+00 -1.9661e+05  0.0000e+00          ION BETA
   -9.313225746155e-10-4.440892098501e-15   147456     1972 eELTA-UTC: A0,A1,T,W
GOLe                                    MARKER NAME         COMMENT
40405S031                               MARKER NUMBER       COMMENT
-2353614.3160 -4641385.3523 3676976.4340                    COMMENT
                                                            COMMENT
This data is provided as a public service by NASA/JPL.      COMMENT
No warranty is expressed or implied regarding suitability   COMMENT
for use.  For further information, contact:                 COMMENT
eave Stowers, NASA/JPL m/s 238-600                          COMMENT
4800 Oak Grove erive, Pasadena CA 91109 USA                 COMMENT
                                                            ENe OF HEAeER
 1 17 10 22  0  0  0.0-5.566049367189e-06-2.273736754432e-12 0.000000000000e+00
    1.000000000000e+02 3.206250000000e+01 4.447328106210e-09 1.330565120109e+00
    1.642853021622e-06 7.076573325321e-03 7.800757884979e-06 5.153675861359e+03
    0.000000000000e+00-3.352761268616e-08 1.137139177154e+00 7.636845111847e-08
    9.685680104825e-01 2.329375000000e+02 6.320958530780e-01-8.055335537058e-09
    4.800199947595e-10 1.000000000000e+00 1.972000000000e+03 0.000000000000e+00
    2.800000000000e+00 0.000000000000e+00 5.587935447693e-09 1.000000000000e+02
   -3.000000000000e+01 4.000000000000e+00
 3 17 10 22  0  0  0.0-5.288235843182e-05 5.002220859751e-12 0.000000000000e+00
    1.080000000000e+02-2.965625000000e+01 4.944491672211e-09 2.990816755980e-01
   -1.575797796249e-06 1.076806336641e-03 5.722045898438e-06 5.153625741959e+03
    0.000000000000e+00 3.725290298462e-08 2.180227073037e+00 4.842877388000e-08
    9.601051800745e-01 2.728437500000e+02 5.447386947589e-01-8.228199880409e-09
   -2.542963067476e-10 1.000000000000e+00 1.972000000000e+03 0.000000000000e+00
    2.000000000000e+00 0.000000000000e+00 2.328306436539e-09 1.080000000000e+02
   -3.000000000000e+01 4.000000000000e+00
 8 17 10 22  0  0  0.0-7.782690227032e-05-1.250555214938e-12 0.000000000000e+00
    9.500000000000e+01-7.750000000000e+01 4.036596711884e-09-2.227026751346e+00
   -3.948807716370e-06 2.735798596404e-03 1.168996095657e-05 5.153711061478e+03
    0.000000000000e+00-2.235174179077e-08 7.370624840110e-02 1.676380634308e-08
    9.682207810247e-01 1.581250000000e+02-6.349223570990e-01-7.792110286956e-09
   -1.142904749427e-11 1.000000000000e+00 1.972000000000e+03 0.000000000000e+00
    2.000000000000e+00 0.000000000000e+00 5.587935447693e-09 9.500000000000e+01
   -3.000000000000e+01 4.000000000000e+00
10 17 10 22  0  0  0.0 9.403750300407e-05 8.526512829121e-12 0.000000000000e+00
    1.100000000000e+01-3.350000000000e+01 4.866631286156e-09-6.567694952343e-01
   -1.721084117889e-06 2.855902072042e-03 5.837529897690e-06 5.153662942886e+03
    0.000000000000e+00 5.029141902924e-08 2.176619713085e+00 2.235174179077e-08
    9.602377731176e-01 2.651250000000e+02-2.880824413352e+00-8.229271353612e-09
   -2.825117677491e-10 1.000000000000e+00 1.972000000000e+03 0.000000000000e+00
    2.000000000000e+00 0.000000000000e+00 1.862645149231e-09 1.100000000000e+01
   -3.000000000000e+01 4.000000000000e+00
11 17 10 22  0  0  0.0-7.225191220641e-04-1.932676241267e-12 0.000000000000e+00
    5.000000000000e+00 7.875000000000e+00 5.798812972408e-09 7.096652424173e-01
    3.259629011154e-07 1.700225798413e-02 1.025013625622e-05 5.153736892700e+03
    0.000000000000e+00-1.639127731323e-07 7.246804360890e-01-1.601874828339e-07
    9.026336548177e-01 1.550625000000e+02 1.710761663564e+00-8.895013370153e-09
    4.403754862638e-10 1.000000000000e+00 1.972000000000e+03 0.000000000000e+00
    2.000000000000e+00 0.000000000000e+00-1.210719347000e-08 5.000000000000e+00
   -3.000000000000e+01 4.000000000000e+00
14 17 10 21 23 59 44.0-8.677551522851e-05-9.094947017729e-13 0.000000000000e+00
    1.300000000000e+01 4.953125000000e+01 4.201603585083e-09-3.067685545074e+00
    2.507120370865e-06 9.297418990172e-03 1.200847327709e-05 5.153715013504e+03
    6.047840000000e+05 1.583248376846e-07-2.859711772737e+00-1.471489667892e-07
    9.621201098101e-01 1.458125000000e+02-1.947555662299e+00-7.653533086088e-09
   -1.767930784271e-10 1.000000000000e+00 1.971000000000e+03 0.000000000000e+00
    2.000000000000e+00 0.000000000000e+00-9.778887033463e-09 1.300000000000e+01
    6.047700000000e+05 4.000000000000e+00
18 17 10 22  0  0  0.0 6.317035295069e-04 5.684341886081e-13 0.000000000000e+00
    1.440000000000e+02-2.903125000000e+01 5.747382258683e-09-1.260846764449e+00
   -1.054257154465e-06 1.814092148561e-02 5.202367901802e-06 5.153627433777e+03
    0.000000000000e+00-9.313225746155e-09 2.129192366848e+00 4.786998033524e-07
    9.258623435286e-01 2.604375000000e+02-1.776542749302e+00-8.753578907412e-09
   -2.539391490134e-10 1.000000000000e+00 1.972000000000e+03 0.000000000000e+00
    2.000000000000e+00 0.000000000000e+00-1.117587089539e-08 1.440000000000e+02
   -3.000000000000e+01 4.000000000000e+00
21 17 10 22  0  0  0.0-4.691230133176e-04 3.296918293927e-12 0.000000000000e+00
    6.200000000000e+01 4.100000000000e+01 5.195216401616e-09-3.559516972169e-01
    2.253800630569e-06 2.402006497141e-02 7.832422852516e-06 5.153577375412e+03
    0.000000000000e+00-3.427267074585e-07 1.088964945407e+00 2.756714820862e-07
    9.410311187290e-01 2.255312500000e+02-1.631796123727e+00-8.765007954906e-09
    6.578845463892e-10 1.000000000000e+00 1.972000000000e+03 0.000000000000e+00
    2.000000000000e+00 0.000000000000e+00-9.778887033463e-09 6.200000000000e+01
   -3.600000000000e+03 4.000000000000e+00
22 17 10 22  0  0  0.0-1.627919264138e-04-1.284661266254e-11 0.000000000000e+00
    9.000000000000e+00-2.962500000000e+01 5.750239520557e-09 2.880552840165e+00
   -1.719221472740e-06 7.175084203482e-03 4.922971129417e-06 5.153687835693e+03
    0.000000000000e+00 1.024454832077e-07 2.128774883676e+00-2.421438694000e-08
    9.239615813828e-01 2.662812500000e+02-1.665124699379e+00-8.536069847286e-09
   -2.421529437849e-10 1.000000000000e+00 1.972000000000e+03 0.000000000000e+00
    2.000000000000e+00 0.000000000000e+00-1.769512891769e-08 9.000000000000e+00
   -3.000000000000e+01 4.000000000000e+00
24 17 10 22  0  0  0.0-4.120822995901e-05-5.684341886081e-13 0.000000000000e+00
    5.300000000000e+01 1.017187500000e+02 5.101641075257e-09 1.635341875810e+00
    5.392357707024e-06 6.118665332906e-03 5.371868610382e-06 5.153677320480e+03
    0.000000000000e+00-8.568167686462e-08-2.045864185861e+00 1.788139343262e-07
    9.437150760123e-01 2.662187500000e+02 4.686624590897e-01-8.540712897831e-09
    2.442958901901e-10 1.000000000000e+00 1.972000000000e+03 0.000000000000e+00
    2.800000000000e+00 0.000000000000e+00 2.793967723846e-09 5.300000000000e+01
   -3.510000000000e+03 4.000000000000e+00
25 17 10 22  0  0  0.0-4.765968769789e-04-6.366462912410e-12 0.000000000000e+00
    9.000000000000e+00-6.946875000000e+01 4.507687763289e-09-3.408074741707e-01
   -3.647059202194e-06 6.618765532039e-03 3.108754754066e-06 5.153737182617e+03
    0.000000000000e+00-1.117587089539e-08-9.587130964887e-01 6.891787052155e-08
    9.759892768652e-01 3.249375000000e+02 8.161057121130e-01-8.365705608075e-09
   -3.789443559820e-10 1.000000000000e+00 1.972000000000e+03 0.000000000000e+00
    2.000000000000e+00 0.000000000000e+00 5.587935447693e-09 9.000000000000e+00
   -3.000000000000e+01 4.000000000000e+00
27 17 10 22  0  0  0.0 3.397022373974e-04 4.206412995700e-12 0.000000000000e+00
    1.000000000000e+01-7.434375000000e+01 3.757299363743e-09-2.712662203966e+00
   -3.814697265625e-06 4.980648169294e-03 1.183152198792e-05 5.153679590225e+03
    0.000000000000e+00-2.980232238770e-08 8.044615483668e-02-1.490116119385e-08
    9.763725643278e-01 1.583125000000e+02 3.828095872473e-01-7.592459113540e-09
    8.928943354902e-12 1.000000000000e+00 1.972000000000e+03 0.000000000000e+00
    2.000000000000e+00 0.000000000000e+00 1.862645149231e-09 1.000000000000e+01
   -1.200000000000e+03 4.000000000000e+00
31 17 10 22  0  0  0.0 1.673083752394e-04-2.501110429876e-12 0.000000000000e+00
    6.500000000000e+01 9.737500000000e+01 4.649122226030e-09 4.560516692969e-01
    4.988163709641e-06 8.613641955890e-03 4.546716809273e-06 5.153806297302e+03
    0.000000000000e+00 1.657754182816e-07-1.978247462702e+00-4.656612873077e-08
    9.653255886112e-01 2.917812500000e+02-2.283797225779e-01-8.374634551430e-09
    2.585821995580e-10 1.000000000000e+00 1.972000000000e+03 0.000000000000e+00
    2.000000000000e+00 0.000000000000e+00-1.350417733192e-08 6.500000000000e+01
   -3.000000000000e+01 4.000000000000e+00
32 17 10 22  0  0  0.0-5.157482810318e-04-4.206412995700e-12 0.000000000000e+00
    5.000000000000e+00 3.453125000000e+01 4.394468761549e-09-2.118537628727e+00
    1.808628439903e-06 1.467908266932e-03 1.168809831142e-05 5.153604328156e+03
    0.000000000000e+00 7.636845111847e-08-3.064149781795e+00-2.235174179077e-08
    9.581162303011e-01 1.526875000000e+02-2.576705038908e+00-7.851755628567e-09
   -2.178662178596e-10 1.000000000000e+00 1.972000000000e+03 0.000000000000e+00
    2.000000000000e+00 0.000000000000e+00 4.656612873077e-10 5.000000000000e+00
   -3.000000000000e+01 4.000000000000e+00
